IRIDIUM 22              
1 24907U 97043E   25185.88528682  .00000252  00000+0  80106-4 0  9990
2 24907  86.3964 106.7443 0002182  83.4953 276.6492 14.35967718459308
DUMMY MASS 1            
1 24925U 97048A   25185.84647207  .00000342  00000+0  34969-4 0  9992
2 24925  86.3363 127.1668 0009073  85.5404 274.6857 14.86997547507752
IRIDIUM 29              
1 24944U 97051A   25185.90193061  .00000325  00000+0  10398-3 0  9998
2 24944  86.3980 136.4702 0002140  89.9338 270.2104 14.36479519455817
IRIDIUM 33              
1 24946U 97051C   25185.90319069  .00000264  00000+0  85989-4 0  9999
2 24946  86.3895 135.7313 0009022  34.0602 326.1171 14.34901534455297
IRIDIUM 28              
1 24948U 97051E   25185.86441193  .00000303  00000+0  94808-4 0  9994
2 24948  86.3983 133.9923 0002581  76.8019 283.3466 14.37395947456383
IRIDIUM 36              
1 24967U 97056C   25185.89460541  .00000323  00000+0  10113-3 0  9999
2 24967  86.3994 165.5637 0002165  82.1750 277.9693 14.37620745454767
